{
    "links": {
        "self": "http://www.neowsapp.com/rest/v1/neo/3465888?api_key=iIulBulltgU6a56xZRHN4H3l9WmuAYTsLGpBGhQ2"
    },
    "id": "3465888",
    "neo_reference_id": "3465888",
    "name": "(2009 QG2)",
    "designation": "2009 QG2",
    "nasa_jpl_url": "http://ssd.jpl.nasa.gov/sbdb.cgi?sstr=3465888",
    "absolute_magnitude_h": 23.2,
    "estimated_diameter": {
        "kilometers": {
            "estimated_diameter_min": 0.0608912622,
            "estimated_diameter_max": 0.1361570015
        },
        "meters": {
            "estimated_diameter_min": 60.8912622106,
            "estimated_diameter_max": 136.1570015386
        },
        "miles": {
            "estimated_diameter_min": 0.0378360645,
            "estimated_diameter_max": 0.0846040122
        },
        "feet": {
            "estimated_diameter_min": 199.7744887109,
            "estimated_diameter_max": 446.7093369279
        }
    },
    "is_potentially_hazardous_asteroid": false,
    "close_approach_data": [
        {
            "close_approach_date": "2009-08-24",
            "close_approach_date_full": "2009-Aug-24 09:56",
            "epoch_date_close_approach": 1251107760000,
            "relative_velocity": {
                "kilometers_per_second": "8.1684480849",
                "kilometers_per_hour": "29406.4131055316",
                "miles_per_hour": "18272.0015210455"
            },
            "miss_distance": {
                "astronomical": "0.0238441747",
                "lunar": "9.2753839583",
                "kilometers": "3567037.747027889",
                "miles": "2216454.4776433082"
            },
            "orbiting_body": "Earth"
        }
    ],
    "orbital_data": {
        "orbit_id": "17",
        "orbit_determination_date": "2017-04-06 09:00:15",
        "first_observation_date": "2009-08-18",
        "last_observation_date": "2009-08-28",
        "data_arc_in_days": 10,
        "observations_used": 100,
        "orbit_uncertainty": "8",
        "minimum_orbit_intersection": ".01986",
        "jupiter_tisserand_invariant": "3.325",
        "epoch_osculation": "2455064.5",
        "eccentricity": ".5725971145802707",
        "semi_major_axis": "2.335002118319907",
        "inclination": "3.07103130396859",
        "ascending_node_longitude": "305.7411725417722",
        "orbital_period": "1303.254836210941",
        "perihelion_distance": ".9979866428311084",
        "perihelion_argument": "39.45451941353096",
        "aphelion_distance": "3.672017593808706",
        "perihelion_time": "2455079.503695909883",
        "mean_anomaly": "355.8555070140682",
        "mean_motion": ".2762314706206326",
        "equinox": "J2000",
        "orbit_class": {
            "orbit_class_type": "APO",
            "orbit_class_description": "Near-Earth asteroid orbits which cross the Earth’s orbit similar to that of 1862 Apollo",
            "orbit_class_range": "a (semi-major axis) > 1.0 AU; q (perihelion) < 1.017 AU"
        }
    },
    "is_sentry_object": false
}